[{"OBJECT_NAME":"OBJECT BE","OBJECT_ID":"2024-199BE","EPOCH":"2026-03-09T22:35:11.240448","MEAN_MOTION":15.34583634,"ECCENTRICITY":0.00126202,"INCLINATION":97.3163,"RA_OF_ASC_NODE":298.7137,"ARG_OF_PERICENTER":307.7021,"MEAN_ANOMALY":52.3078,"EPHEMERIS_TYPE":0,"CLASSIFICATION_TYPE":"U","NORAD_CAT_ID":61787,"ELEMENT_SET_NO":999,"REV_AT_EPOCH":12186,"BSTAR":0.00035348262,"MEAN_MOTION_DOT":0.00011799,"MEAN_MOTION_DDOT":0},{"OBJECT_NAME":"STARLINK-34287","OBJECT_ID":"2025-139G","EPOCH":"2026-03-09T10:15:36.317088","MEAN_MOTION":15.30200509,"ECCENTRICITY":0.00015432,"INCLINATION":53.1591,"RA_OF_ASC_NODE":128.2814,"ARG_OF_PERICENTER":80.1154,"MEAN_ANOMALY":280.0021,"EPHEMERIS_TYPE":0,"CLASSIFICATION_TYPE":"U","NORAD_CAT_ID":64670,"ELEMENT_SET_NO":999,"REV_AT_EPOCH":4024,"BSTAR":0.00071519536,"MEAN_MOTION_DOT":0.00020883,"MEAN_MOTION_DDOT":0}]
